{
  "type": "FeatureCollection",
  "features": [
    {
      "type": "Feature",
      "properties": {
        "risk_score": 58,
        "risk_category": "HIGH"
      },
      "geometry": {
        "type": "Polygon",
        "coordinates": [
          [
            [
              88.46563952194171,
              27.189999999999998
            ],
            [
              88.54436047805828,
              27.189999999999998
            ],
            [
              88.54436047805828,
              27.259999999999998
            ],
            [
              88.46563952194171,
              27.259999999999998
            ],
            [
              88.46563952194171,
              27.189999999999998
            ]
          ]
        ]
      }
    },
    {
      "type": "Feature",
      "properties": {
        "risk_score": 65,
        "risk_category": "HIGH"
      },
      "geometry": {
        "type": "Polygon",
        "coordinates": [
          [
            [
              88.50063952194172,
              27.189999999999998
            ],
            [
              88.57936047805829,
              27.189999999999998
            ],
            [
              88.57936047805829,
              27.259999999999998
            ],
            [
              88.50063952194172,
              27.259999999999998
            ],
            [
              88.50063952194172,
              27.189999999999998
            ]
          ]
        ]
      }
    },
    {
      "type": "Feature",
      "properties": {
        "risk_score": 72,
        "risk_category": "CRITICAL"
      },
      "geometry": {
        "type": "Polygon",
        "coordinates": [
          [
            [
              88.53563952194172,
              27.189999999999998
            ],
            [
              88.61436047805829,
              27.189999999999998
            ],
            [
              88.61436047805829,
              27.259999999999998
            ],
            [
              88.53563952194172,
              27.259999999999998
            ],
            [
              88.53563952194172,
              27.189999999999998
            ]
          ]
        ]
      }
    },
    {
      "type": "Feature",
      "properties": {
        "risk_score": 79,
        "risk_category": "CRITICAL"
      },
      "geometry": {
        "type": "Polygon",
        "coordinates": [
          [
            [
              88.57063952194171,
              27.189999999999998
            ],
            [
              88.64936047805828,
              27.189999999999998
            ],
            [
              88.64936047805828,
              27.259999999999998
            ],
            [
              88.57063952194171,
              27.259999999999998
            ],
            [
              88.57063952194171,
              27.189999999999998
            ]
          ]
        ]
      }
    },
    {
      "type": "Feature",
      "properties": {
        "risk_score": 72,
        "risk_category": "CRITICAL"
      },
      "geometry": {
        "type": "Polygon",
        "coordinates": [
          [
            [
              88.60563952194171,
              27.189999999999998
            ],
            [
              88.68436047805828,
              27.189999999999998
            ],
            [
              88.68436047805828,
              27.259999999999998
            ],
            [
              88.60563952194171,
              27.259999999999998
            ],
            [
              88.60563952194171,
              27.189999999999998
            ]
          ]
        ]
      }
    },
    {
      "type": "Feature",
      "properties": {
        "risk_score": 65,
        "risk_category": "HIGH"
      },
      "geometry": {
        "type": "Polygon",
        "coordinates": [
          [
            [
              88.64063952194171,
              27.189999999999998
            ],
            [
              88.71936047805828,
              27.189999999999998
            ],
            [
              88.71936047805828,
              27.259999999999998
            ],
            [
              88.64063952194171,
              27.259999999999998
            ],
            [
              88.64063952194171,
              27.189999999999998
            ]
          ]
        ]
      }
    },
    {
      "type": "Feature",
      "properties": {
        "risk_score": 58,
        "risk_category": "HIGH"
      },
      "geometry": {
        "type": "Polygon",
        "coordinates": [
          [
            [
              88.67563952194172,
              27.189999999999998
            ],
            [
              88.75436047805829,
              27.189999999999998
            ],
            [
              88.75436047805829,
              27.259999999999998
            ],
            [
              88.67563952194172,
              27.259999999999998
            ],
            [
              88.67563952194172,
              27.189999999999998
            ]
          ]
        ]
      }
    },
    {
      "type": "Feature",
      "properties": {
        "risk_score": 65,
        "risk_category": "HIGH"
      },
      "geometry": {
        "type": "Polygon",
        "coordinates": [
          [
            [
              88.46562714052935,
              27.224999999999998
            ],
            [
              88.54437285947064,
              27.224999999999998
            ],
            [
              88.54437285947064,
              27.294999999999998
            ],
            [
              88.46562714052935,
              27.294999999999998
            ],
            [
              88.46562714052935,
              27.224999999999998
            ]
          ]
        ]
      }
    },
    {
      "type": "Feature",
      "properties": {
        "risk_score": 72,
        "risk_category": "CRITICAL"
      },
      "geometry": {
        "type": "Polygon",
        "coordinates": [
          [
            [
              88.50062714052936,
              27.224999999999998
            ],
            [
              88.57937285947065,
              27.224999999999998
            ],
            [
              88.57937285947065,
              27.294999999999998
            ],
            [
              88.50062714052936,
              27.294999999999998
            ],
            [
              88.50062714052936,
              27.224999999999998
            ]
          ]
        ]
      }
    },
    {
      "type": "Feature",
      "properties": {
        "risk_score": 79,
        "risk_category": "CRITICAL"
      },
      "geometry": {
        "type": "Polygon",
        "coordinates": [
          [
            [
              88.53562714052936,
              27.224999999999998
            ],
            [
              88.61437285947065,
              27.224999999999998
            ],
            [
              88.61437285947065,
              27.294999999999998
            ],
            [
              88.53562714052936,
              27.294999999999998
            ],
            [
              88.53562714052936,
              27.224999999999998
            ]
          ]
        ]
      }
    },
    {
      "type": "Feature",
      "properties": {
        "risk_score": 86,
        "risk_category": "CRITICAL"
      },
      "geometry": {
        "type": "Polygon",
        "coordinates": [
          [
            [
              88.57062714052935,
              27.224999999999998
            ],
            [
              88.64937285947065,
              27.224999999999998
            ],
            [
              88.64937285947065,
              27.294999999999998
            ],
            [
              88.57062714052935,
              27.294999999999998
            ],
            [
              88.57062714052935,
              27.224999999999998
            ]
          ]
        ]
      }
    },
    {
      "type": "Feature",
      "properties": {
        "risk_score": 79,
        "risk_category": "CRITICAL"
      },
      "geometry": {
        "type": "Polygon",
        "coordinates": [
          [
            [
              88.60562714052935,
              27.224999999999998
            ],
            [
              88.68437285947064,
              27.224999999999998
            ],
            [
              88.68437285947064,
              27.294999999999998
            ],
            [
              88.60562714052935,
              27.294999999999998
            ],
            [
              88.60562714052935,
              27.224999999999998
            ]
          ]
        ]
      }
    },
    {
      "type": "Feature",
      "properties": {
        "risk_score": 72,
        "risk_category": "CRITICAL"
      },
      "geometry": {
        "type": "Polygon",
        "coordinates": [
          [
            [
              88.64062714052935,
              27.224999999999998
            ],
            [
              88.71937285947064,
              27.224999999999998
            ],
            [
              88.71937285947064,
              27.294999999999998
            ],
            [
              88.64062714052935,
              27.294999999999998
            ],
            [
              88.64062714052935,
              27.224999999999998
            ]
          ]
        ]
      }
    },
    {
      "type": "Feature",
      "properties": {
        "risk_score": 65,
        "risk_category": "HIGH"
      },
      "geometry": {
        "type": "Polygon",
        "coordinates": [
          [
            [
              88.67562714052936,
              27.224999999999998
            ],
            [
              88.75437285947065,
              27.224999999999998
            ],
            [
              88.75437285947065,
              27.294999999999998
            ],
            [
              88.67562714052936,
              27.294999999999998
            ],
            [
              88.67562714052936,
              27.224999999999998
            ]
          ]
        ]
      }
    },
    {
      "type": "Feature",
      "properties": {
        "risk_score": 72,
        "risk_category": "CRITICAL"
      },
      "geometry": {
        "type": "Polygon",
        "coordinates": [
          [
            [
              88.46561473662355,
              27.259999999999998
            ],
            [
              88.54438526337644,
              27.259999999999998
            ],
            [
              88.54438526337644,
              27.33
            ],
            [
              88.46561473662355,
              27.33
            ],
            [
              88.46561473662355,
              27.259999999999998
            ]
          ]
        ]
      }
    },
    {
      "type": "Feature",
      "properties": {
        "risk_score": 79,
        "risk_category": "CRITICAL"
      },
      "geometry": {
        "type": "Polygon",
        "coordinates": [
          [
            [
              88.50061473662356,
              27.259999999999998
            ],
            [
              88.57938526337645,
              27.259999999999998
            ],
            [
              88.57938526337645,
              27.33
            ],
            [
              88.50061473662356,
              27.33
            ],
            [
              88.50061473662356,
              27.259999999999998
            ]
          ]
        ]
      }
    },
    {
      "type": "Feature",
      "properties": {
        "risk_score": 86,
        "risk_category": "CRITICAL"
      },
      "geometry": {
        "type": "Polygon",
        "coordinates": [
          [
            [
              88.53561473662356,
              27.259999999999998
            ],
            [
              88.61438526337645,
              27.259999999999998
            ],
            [
              88.61438526337645,
              27.33
            ],
            [
              88.53561473662356,
              27.33
            ],
            [
              88.53561473662356,
              27.259999999999998
            ]
          ]
        ]
      }
    },
    {
      "type": "Feature",
      "properties": {
        "risk_score": 93,
        "risk_category": "CRITICAL"
      },
      "geometry": {
        "type": "Polygon",
        "coordinates": [
          [
            [
              88.57061473662355,
              27.259999999999998
            ],
            [
              88.64938526337644,
              27.259999999999998
            ],
            [
              88.64938526337644,
              27.33
            ],
            [
              88.57061473662355,
              27.33
            ],
            [
              88.57061473662355,
              27.259999999999998
            ]
          ]
        ]
      }
    },
    {
      "type": "Feature",
      "properties": {
        "risk_score": 86,
        "risk_category": "CRITICAL"
      },
      "geometry": {
        "type": "Polygon",
        "coordinates": [
          [
            [
              88.60561473662355,
              27.259999999999998
            ],
            [
              88.68438526337644,
              27.259999999999998
            ],
            [
              88.68438526337644,
              27.33
            ],
            [
              88.60561473662355,
              27.33
            ],
            [
              88.60561473662355,
              27.259999999999998
            ]
          ]
        ]
      }
    },
    {
      "type": "Feature",
      "properties": {
        "risk_score": 79,
        "risk_category": "CRITICAL"
      },
      "geometry": {
        "type": "Polygon",
        "coordinates": [
          [
            [
              88.64061473662355,
              27.259999999999998
            ],
            [
              88.71938526337644,
              27.259999999999998
            ],
            [
              88.71938526337644,
              27.33
            ],
            [
              88.64061473662355,
              27.33
            ],
            [
              88.64061473662355,
              27.259999999999998
            ]
          ]
        ]
      }
    },
    {
      "type": "Feature",
      "properties": {
        "risk_score": 72,
        "risk_category": "CRITICAL"
      },
      "geometry": {
        "type": "Polygon",
        "coordinates": [
          [
            [
              88.67561473662356,
              27.259999999999998
            ],
            [
              88.75438526337645,
              27.259999999999998
            ],
            [
              88.75438526337645,
              27.33
            ],
            [
              88.67561473662356,
              27.33
            ],
            [
              88.67561473662356,
              27.259999999999998
            ]
          ]
        ]
      }
    },
    {
      "type": "Feature",
      "properties": {
        "risk_score": 79,
        "risk_category": "CRITICAL"
      },
      "geometry": {
        "type": "Polygon",
        "coordinates": [
          [
            [
              88.46560231019377,
              27.294999999999998
            ],
            [
              88.54439768980622,
              27.294999999999998
            ],
            [
              88.54439768980622,
              27.365
            ],
            [
              88.46560231019377,
              27.365
            ],
            [
              88.46560231019377,
              27.294999999999998
            ]
          ]
        ]
      }
    },
    {
      "type": "Feature",
      "properties": {
        "risk_score": 86,
        "risk_category": "CRITICAL"
      },
      "geometry": {
        "type": "Polygon",
        "coordinates": [
          [
            [
              88.50060231019378,
              27.294999999999998
            ],
            [
              88.57939768980623,
              27.294999999999998
            ],
            [
              88.57939768980623,
              27.365
            ],
            [
              88.50060231019378,
              27.365
            ],
            [
              88.50060231019378,
              27.294999999999998
            ]
          ]
        ]
      }
    },
    {
      "type": "Feature",
      "properties": {
        "risk_score": 93,
        "risk_category": "CRITICAL"
      },
      "geometry": {
        "type": "Polygon",
        "coordinates": [
          [
            [
              88.53560231019378,
              27.294999999999998
            ],
            [
              88.61439768980622,
              27.294999999999998
            ],
            [
              88.61439768980622,
              27.365
            ],
            [
              88.53560231019378,
              27.365
            ],
            [
              88.53560231019378,
              27.294999999999998
            ]
          ]
        ]
      }
    },
    {
      "type": "Feature",
      "properties": {
        "risk_score": 99,
        "risk_category": "CRITICAL"
      },
      "geometry": {
        "type": "Polygon",
        "coordinates": [
          [
            [
              88.57060231019378,
              27.294999999999998
            ],
            [
              88.64939768980622,
              27.294999999999998
            ],
            [
              88.64939768980622,
              27.365
            ],
            [
              88.57060231019378,
              27.365
            ],
            [
              88.57060231019378,
              27.294999999999998
            ]
          ]
        ]
      }
    },
    {
      "type": "Feature",
      "properties": {
        "risk_score": 93,
        "risk_category": "CRITICAL"
      },
      "geometry": {
        "type": "Polygon",
        "coordinates": [
          [
            [
              88.60560231019377,
              27.294999999999998
            ],
            [
              88.68439768980622,
              27.294999999999998
            ],
            [
              88.68439768980622,
              27.365
            ],
            [
              88.60560231019377,
              27.365
            ],
            [
              88.60560231019377,
              27.294999999999998
            ]
          ]
        ]
      }
    },
    {
      "type": "Feature",
      "properties": {
        "risk_score": 86,
        "risk_category": "CRITICAL"
      },
      "geometry": {
        "type": "Polygon",
        "coordinates": [
          [
            [
              88.64060231019377,
              27.294999999999998
            ],
            [
              88.71939768980621,
              27.294999999999998
            ],
            [
              88.71939768980621,
              27.365
            ],
            [
              88.64060231019377,
              27.365
            ],
            [
              88.64060231019377,
              27.294999999999998
            ]
          ]
        ]
      }
    },
    {
      "type": "Feature",
      "properties": {
        "risk_score": 79,
        "risk_category": "CRITICAL"
      },
      "geometry": {
        "type": "Polygon",
        "coordinates": [
          [
            [
              88.67560231019378,
              27.294999999999998
            ],
            [
              88.75439768980623,
              27.294999999999998
            ],
            [
              88.75439768980623,
              27.365
            ],
            [
              88.67560231019378,
              27.365
            ],
            [
              88.67560231019378,
              27.294999999999998
            ]
          ]
        ]
      }
    },
    {
      "type": "Feature",
      "properties": {
        "risk_score": 72,
        "risk_category": "CRITICAL"
      },
      "geometry": {
        "type": "Polygon",
        "coordinates": [
          [
            [
              88.46558986120942,
              27.33
            ],
            [
              88.54441013879057,
              27.33
            ],
            [
              88.54441013879057,
              27.4
            ],
            [
              88.46558986120942,
              27.4
            ],
            [
              88.46558986120942,
              27.33
            ]
          ]
        ]
      }
    },
    {
      "type": "Feature",
      "properties": {
        "risk_score": 79,
        "risk_category": "CRITICAL"
      },
      "geometry": {
        "type": "Polygon",
        "coordinates": [
          [
            [
              88.50058986120943,
              27.33
            ],
            [
              88.57941013879058,
              27.33
            ],
            [
              88.57941013879058,
              27.4
            ],
            [
              88.50058986120943,
              27.4
            ],
            [
              88.50058986120943,
              27.33
            ]
          ]
        ]
      }
    },
    {
      "type": "Feature",
      "properties": {
        "risk_score": 86,
        "risk_category": "CRITICAL"
      },
      "geometry": {
        "type": "Polygon",
        "coordinates": [
          [
            [
              88.53558986120943,
              27.33
            ],
            [
              88.61441013879057,
              27.33
            ],
            [
              88.61441013879057,
              27.4
            ],
            [
              88.53558986120943,
              27.4
            ],
            [
              88.53558986120943,
              27.33
            ]
          ]
        ]
      }
    },
    {
      "type": "Feature",
      "properties": {
        "risk_score": 93,
        "risk_category": "CRITICAL"
      },
      "geometry": {
        "type": "Polygon",
        "coordinates": [
          [
            [
              88.57058986120943,
              27.33
            ],
            [
              88.64941013879057,
              27.33
            ],
            [
              88.64941013879057,
              27.4
            ],
            [
              88.57058986120943,
              27.4
            ],
            [
              88.57058986120943,
              27.33
            ]
          ]
        ]
      }
    },
    {
      "type": "Feature",
      "properties": {
        "risk_score": 86,
        "risk_category": "CRITICAL"
      },
      "geometry": {
        "type": "Polygon",
        "coordinates": [
          [
            [
              88.60558986120942,
              27.33
            ],
            [
              88.68441013879057,
              27.33
            ],
            [
              88.68441013879057,
              27.4
            ],
            [
              88.60558986120942,
              27.4
            ],
            [
              88.60558986120942,
              27.33
            ]
          ]
        ]
      }
    },
    {
      "type": "Feature",
      "properties": {
        "risk_score": 79,
        "risk_category": "CRITICAL"
      },
      "geometry": {
        "type": "Polygon",
        "coordinates": [
          [
            [
              88.64058986120942,
              27.33
            ],
            [
              88.71941013879056,
              27.33
            ],
            [
              88.71941013879056,
              27.4
            ],
            [
              88.64058986120942,
              27.4
            ],
            [
              88.64058986120942,
              27.33
            ]
          ]
        ]
      }
    },
    {
      "type": "Feature",
      "properties": {
        "risk_score": 72,
        "risk_category": "CRITICAL"
      },
      "geometry": {
        "type": "Polygon",
        "coordinates": [
          [
            [
              88.67558986120943,
              27.33
            ],
            [
              88.75441013879058,
              27.33
            ],
            [
              88.75441013879058,
              27.4
            ],
            [
              88.67558986120943,
              27.4
            ],
            [
              88.67558986120943,
              27.33
            ]
          ]
        ]
      }
    },
    {
      "type": "Feature",
      "properties": {
        "risk_score": 65,
        "risk_category": "HIGH"
      },
      "geometry": {
        "type": "Polygon",
        "coordinates": [
          [
            [
              88.46557738963982,
              27.365
            ],
            [
              88.54442261036017,
              27.365
            ],
            [
              88.54442261036017,
              27.435
            ],
            [
              88.46557738963982,
              27.435
            ],
            [
              88.46557738963982,
              27.365
            ]
          ]
        ]
      }
    },
    {
      "type": "Feature",
      "properties": {
        "risk_score": 72,
        "risk_category": "CRITICAL"
      },
      "geometry": {
        "type": "Polygon",
        "coordinates": [
          [
            [
              88.50057738963983,
              27.365
            ],
            [
              88.57942261036018,
              27.365
            ],
            [
              88.57942261036018,
              27.435
            ],
            [
              88.50057738963983,
              27.435
            ],
            [
              88.50057738963983,
              27.365
            ]
          ]
        ]
      }
    },
    {
      "type": "Feature",
      "properties": {
        "risk_score": 79,
        "risk_category": "CRITICAL"
      },
      "geometry": {
        "type": "Polygon",
        "coordinates": [
          [
            [
              88.53557738963983,
              27.365
            ],
            [
              88.61442261036018,
              27.365
            ],
            [
              88.61442261036018,
              27.435
            ],
            [
              88.53557738963983,
              27.435
            ],
            [
              88.53557738963983,
              27.365
            ]
          ]
        ]
      }
    },
    {
      "type": "Feature",
      "properties": {
        "risk_score": 86,
        "risk_category": "CRITICAL"
      },
      "geometry": {
        "type": "Polygon",
        "coordinates": [
          [
            [
              88.57057738963982,
              27.365
            ],
            [
              88.64942261036018,
              27.365
            ],
            [
              88.64942261036018,
              27.435
            ],
            [
              88.57057738963982,
              27.435
            ],
            [
              88.57057738963982,
              27.365
            ]
          ]
        ]
      }
    },
    {
      "type": "Feature",
      "properties": {
        "risk_score": 79,
        "risk_category": "CRITICAL"
      },
      "geometry": {
        "type": "Polygon",
        "coordinates": [
          [
            [
              88.60557738963982,
              27.365
            ],
            [
              88.68442261036017,
              27.365
            ],
            [
              88.68442261036017,
              27.435
            ],
            [
              88.60557738963982,
              27.435
            ],
            [
              88.60557738963982,
              27.365
            ]
          ]
        ]
      }
    },
    {
      "type": "Feature",
      "properties": {
        "risk_score": 72,
        "risk_category": "CRITICAL"
      },
      "geometry": {
        "type": "Polygon",
        "coordinates": [
          [
            [
              88.64057738963982,
              27.365
            ],
            [
              88.71942261036017,
              27.365
            ],
            [
              88.71942261036017,
              27.435
            ],
            [
              88.64057738963982,
              27.435
            ],
            [
              88.64057738963982,
              27.365
            ]
          ]
        ]
      }
    },
    {
      "type": "Feature",
      "properties": {
        "risk_score": 65,
        "risk_category": "HIGH"
      },
      "geometry": {
        "type": "Polygon",
        "coordinates": [
          [
            [
              88.67557738963983,
              27.365
            ],
            [
              88.75442261036018,
              27.365
            ],
            [
              88.75442261036018,
              27.435
            ],
            [
              88.67557738963983,
              27.435
            ],
            [
              88.67557738963983,
              27.365
            ]
          ]
        ]
      }
    },
    {
      "type": "Feature",
      "properties": {
        "risk_score": 58,
        "risk_category": "HIGH"
      },
      "geometry": {
        "type": "Polygon",
        "coordinates": [
          [
            [
              88.4655648954542,
              27.4
            ],
            [
              88.5444351045458,
              27.4
            ],
            [
              88.5444351045458,
              27.47
            ],
            [
              88.4655648954542,
              27.47
            ],
            [
              88.4655648954542,
              27.4
            ]
          ]
        ]
      }
    },
    {
      "type": "Feature",
      "properties": {
        "risk_score": 65,
        "risk_category": "HIGH"
      },
      "geometry": {
        "type": "Polygon",
        "coordinates": [
          [
            [
              88.5005648954542,
              27.4
            ],
            [
              88.57943510454581,
              27.4
            ],
            [
              88.57943510454581,
              27.47
            ],
            [
              88.5005648954542,
              27.47
            ],
            [
              88.5005648954542,
              27.4
            ]
          ]
        ]
      }
    },
    {
      "type": "Feature",
      "properties": {
        "risk_score": 72,
        "risk_category": "CRITICAL"
      },
      "geometry": {
        "type": "Polygon",
        "coordinates": [
          [
            [
              88.5355648954542,
              27.4
            ],
            [
              88.6144351045458,
              27.4
            ],
            [
              88.6144351045458,
              27.47
            ],
            [
              88.5355648954542,
              27.47
            ],
            [
              88.5355648954542,
              27.4
            ]
          ]
        ]
      }
    },
    {
      "type": "Feature",
      "properties": {
        "risk_score": 79,
        "risk_category": "CRITICAL"
      },
      "geometry": {
        "type": "Polygon",
        "coordinates": [
          [
            [
              88.5705648954542,
              27.4
            ],
            [
              88.6494351045458,
              27.4
            ],
            [
              88.6494351045458,
              27.47
            ],
            [
              88.5705648954542,
              27.47
            ],
            [
              88.5705648954542,
              27.4
            ]
          ]
        ]
      }
    },
    {
      "type": "Feature",
      "properties": {
        "risk_score": 72,
        "risk_category": "CRITICAL"
      },
      "geometry": {
        "type": "Polygon",
        "coordinates": [
          [
            [
              88.6055648954542,
              27.4
            ],
            [
              88.6844351045458,
              27.4
            ],
            [
              88.6844351045458,
              27.47
            ],
            [
              88.6055648954542,
              27.47
            ],
            [
              88.6055648954542,
              27.4
            ]
          ]
        ]
      }
    },
    {
      "type": "Feature",
      "properties": {
        "risk_score": 65,
        "risk_category": "HIGH"
      },
      "geometry": {
        "type": "Polygon",
        "coordinates": [
          [
            [
              88.64056489545419,
              27.4
            ],
            [
              88.7194351045458,
              27.4
            ],
            [
              88.7194351045458,
              27.47
            ],
            [
              88.64056489545419,
              27.47
            ],
            [
              88.64056489545419,
              27.4
            ]
          ]
        ]
      }
    },
    {
      "type": "Feature",
      "properties": {
        "risk_score": 58,
        "risk_category": "HIGH"
      },
      "geometry": {
        "type": "Polygon",
        "coordinates": [
          [
            [
              88.6755648954542,
              27.4
            ],
            [
              88.7544351045458,
              27.4
            ],
            [
              88.7544351045458,
              27.47
            ],
            [
              88.6755648954542,
              27.47
            ],
            [
              88.6755648954542,
              27.4
            ]
          ]
        ]
      }
    }
  ]
}